ONEWEB-0210             
1 48787U 21045W   25357.23145769 -.00000317  00000+0 -87648-3 0  9993
2 48787  87.9013 294.2868 0002399  68.1820 291.9565 13.15548598221181
ONEWEB-0214             
1 48788U 21045X   25357.08807435 -.00000165  00000+0 -47207-3 0  9990
2 48788  87.9022 294.3082 0002240  75.1722 284.9657 13.15548003221135
ONEWEB-0221             
1 48789U 21045Y   25357.09519368 -.00000123  00000+0 -36104-3 0  9995
2 48789  87.9007 294.3204 0001881  69.0998 291.0334 13.15549651221223
ONEWEB-0213             
1 48790U 21045Z   25357.08409415 -.00000101  00000+0 -30324-3 0  9991
2 48790  87.9005 294.3296 0002013  69.7546 290.3801 13.15546138221282
ONEWEB-0212             
1 48791U 21045AA  25357.21324123  .00000124  00000+0  29533-3 0  9992
2 48791  87.9011 294.2943 0001736  77.8534 282.2791 13.15546166221296
ONEWEB-0227             
1 48792U 21045AB  25357.21245153 -.00000054  00000+0 -17676-3 0  9997
2 48792  87.8998 294.3037 0001749  73.7018 286.4305 13.15548952221248
ONEWEB-0226             
1 48793U 21045AC  25357.28217692  .00000255  00000+0  64266-3 0  9990
2 48793  87.8999 294.2994 0002063  69.8221 290.3132 13.15548056221228
ONEWEB-0224             
1 48794U 21045AD  25357.24571542 -.00000275  00000+0 -76405-3 0  9996
2 48794  87.9001 294.3423 0001245  44.9499 315.1732 13.15549320221142
